CCSDS_OMM_VERS,COMMENT,CREATION_DATE,ORIGINATOR,OBJECT_NAME,OBJECT_ID,CENTER_NAME,REF_FRAME,TIME_SYSTEM,MEAN_ELEMENT_THEORY,EPOCH,MEAN_MOTION,ECCENTRICITY,INCLINATION,RA_OF_ASC_NODE,ARG_OF_PERICENTER,MEAN_ANOMALY,EPHEMERIS_TYPE,CLASSIFICATION_TYPE,NORAD_CAT_ID,ELEMENT_SET_NO,REV_AT_EPOCH,BSTAR,MEAN_MOTION_DOT,MEAN_MOTION_DDOT,SEMIMAJOR_AXIS,PERIOD,APOAPSIS,PERIAPSIS,OBJECT_TYPE,RCS_SIZE,COUNTRY_CODE,LAUNCH_DATE,SITE,DECAY_DATE,FILE,GP_ID,TLE_LINE0,TLE_LINE1,TLE_LINE2
2,GENERATED VIA SPACE-TRACK.ORG API,2019-10-03T11:10:18,18 SPCS,GALILEO-FM3,2012-055A,EARTH,TEME,UTC,SGP4,2019-10-02T21:32:28.007232,1.70473832,0.0002356,54.9408,168.9029,271.2338,88.814,0,U,38857,999,4340,0.0,-9e-08,0,29600.339,844.704,23229.178,23215.23,PAYLOAD,LARGE,ESA,2012-10-12,FRGUI,,2622621,140548110,0 GALILEO-FM3,1 38857U 12055A   19275.89754638 -.00000009  00000-0  00000+0 0  9997,2 38857  54.9408 168.9029 0002356 271.2338  88.8140  1.70473832 43405
2,GENERATED VIA SPACE-TRACK.ORG API,2019-10-06T22:20:17,18 SPCS,GALILEO-FM3,2012-055A,EARTH,TEME,UTC,SGP4,2019-10-06T10:00:31.782528,1.70473919,0.0002227,54.941,168.8059,270.441,89.5999,0,U,38857,999,4346,0.0,-2.2e-07,0,29600.329,844.703,23228.786,23215.602,PAYLOAD,LARGE,ESA,2012-10-12,FRGUI,,2625112,140775528,0 GALILEO-FM3,1 38857U 12055A   19279.41703452 -.00000022  00000-0  00000+0 0  9992,2 38857  54.9410 168.8059 0002227 270.4410  89.5999  1.70473919 43461
2,GENERATED VIA SPACE-TRACK.ORG API,2019-10-08T03:54:30,18 SPCS,GALILEO-FM3,2012-055A,EARTH,TEME,UTC,SGP4,2019-10-07T00:05:12.617664,1.70473936,0.0002206,54.9411,168.7897,270.3336,89.7079,0,U,38857,999,4347,0.0,-2e-07,0,29600.327,844.703,23228.722,23215.662,PAYLOAD,LARGE,ESA,2012-10-12,FRGUI,,2626010,140847374,0 GALILEO-FM3,1 38857U 12055A   19280.00361826 -.00000020 +00000-0 +00000-0 0  9993,2 38857 054.9411 168.7897 0002206 270.3336 089.7079 01.70473936043475
2,GENERATED VIA SPACE-TRACK.ORG API,2019-10-09T04:38:40,18 SPCS,GALILEO-FM3,2012-055A,EARTH,TEME,UTC,SGP4,2019-10-08T04:14:34.656000,1.70473964,0.0002169,54.9412,168.7574,270.1362,89.9086,0,U,38857,999,4349,0.0,-1.3e-07,0,29600.324,844.703,23228.609,23215.768,PAYLOAD,LARGE,ESA,2012-10-12,FRGUI,,2626653,140898933,0 GALILEO-FM3,1 38857U 12055A   19281.17679000 -.00000013 +00000-0 +00000-0 0  9990,2 38857 054.9412 168.7574 0002169 270.1362 089.9086 01.70473964043496
2,GENERATED VIA SPACE-TRACK.ORG API,2019-10-09T06:20:17,18 SPCS,GALILEO-FM3,2012-055A,EARTH,TEME,UTC,SGP4,2019-10-08T18:19:15.841920,1.70473971,0.0002146,54.9412,168.7412,269.8801,90.1674,0,U,38857,999,4350,0.0,-9e-08,0,29600.323,844.703,23228.54,23215.836,PAYLOAD,LARGE,ESA,2012-10-12,FRGUI,,2626693,140923569,0 GALILEO-FM3,1 38857U 12055A   19281.76337780 -.00000009  00000-0  00000+0 0  9995,2 38857  54.9412 168.7412 0002146 269.8801  90.1674  1.70473971 43502
2,GENERATED VIA SPACE-TRACK.ORG API,2019-10-12T22:20:18,18 SPCS,GALILEO-FM3,2012-055A,EARTH,TEME,UTC,SGP4,2019-10-12T06:47:23.970912,1.70473993,0.0002004,54.9412,168.6442,269.1474,90.9248,0,U,38857,999,4356,0.0,2.2e-07,0,29600.32,844.703,23228.117,23216.253,PAYLOAD,LARGE,ESA,2012-10-12,FRGUI,,2631586,141160481,0 GALILEO-FM3,1 38857U 12055A   19285.28291633  .00000022  00000-0  00000+0 0  9996,2 38857  54.9412 168.6442 0002004 269.1474  90.9248  1.70473993 43561
2,GENERATED VIA SPACE-TRACK.ORG API,2019-10-14T04:07:51,18 SPCS,GALILEO-FM3,2012-055A,EARTH,TEME,UTC,SGP4,2019-10-12T20:52:05.322720,1.70473986,0.0001983,54.9414,168.628,269.0158,91.0604,0,U,38857,999,4357,0.0,2.6e-07,0,29600.321,844.703,23228.056,23216.316,PAYLOAD,LARGE,ESA,2012-10-12,FRGUI,,2632981,141242482,0 GALILEO-FM3,1 38857U 12055A   19285.86950605 +.00000026 +00000-0 +00000-0 0  9996,2 38857 054.9414 168.6280 0001983 269.0158 091.0604 01.70473986043577
2,GENERATED VIA SPACE-TRACK.ORG API,2019-10-15T22:30:15,18 SPCS,GALILEO-FM3,2012-055A,EARTH,TEME,UTC,SGP4,2019-10-15T05:10:50.010240,1.70473935,0.0001916,54.9417,168.5634,268.6353,91.4518,0,U,38857,999,4361,0.0,4.2e-07,0,29600.327,844.703,23227.864,23216.521,PAYLOAD,LARGE,ESA,2012-10-12,FRGUI,,2635171,141369626,0 GALILEO-FM3,1 38857U 12055A   19288.21585660  .00000042  00000-0  00000+0 0  9990,2 38857  54.9417 168.5634 0001916 268.6353  91.4518  1.70473935 43617
2,GENERATED VIA SPACE-TRACK.ORG API,2019-10-20T14:20:17,18 SPCS,GALILEO-FM3,2012-055A,EARTH,TEME,UTC,SGP4,2019-10-19T21:48:15.066144,1.70473815,0.0001733,54.9413,168.434,268.515,91.5626,0,U,38857,999,4369,0.0,4e-07,0,29600.341,844.704,23227.336,23217.076,PAYLOAD,LARGE,ESA,2012-10-12,FRGUI,,2638702,141630639,0 GALILEO-FM3,1 38857U 12055A   19292.90850771  .00000040  00000-0  00000+0 0  9997,2 38857  54.9413 168.4340 0001733 268.5150  91.5626  1.70473815 43693
2,GENERATED VIA SPACE-TRACK.ORG API,2019-10-22T03:38:07,18 SPCS,GALILEO-FM3,2012-055A,EARTH,TEME,UTC,SGP4,2019-10-21T16:02:16.778400,1.70473788,0.0001711,54.9412,168.3855,267.5471,92.5262,0,U,38857,999,4372,0.0,3.6e-07,0,29600.344,844.704,23227.274,23217.144,PAYLOAD,LARGE,ESA,2012-10-12,FRGUI,,2639404,141755562,0 GALILEO-FM3,1 38857U 12055A   19294.66824975 +.00000036 +00000-0 +00000-0 0  9995,2 38857 054.9412 168.3855 0001711 267.5471 092.5262 01.70473788043723
2,GENERATED VIA SPACE-TRACK.ORG API,2019-10-23T14:20:16,18 SPCS,GALILEO-FM3,2012-055A,EARTH,TEME,UTC,SGP4,2019-10-22T20:11:38.544576,1.70473775,0.0001671,54.9417,168.3531,267.4932,92.5813,0,U,38857,999,4374,0.0,3.6e-07,0,29600.346,844.704,23227.157,23217.264,PAYLOAD,LARGE,ESA,2012-10-12,FRGUI,,2640288,141878389,0 GALILEO-FM3,1 38857U 12055A   19295.84141834  .00000036  00000-0  00000+0 0  9991,2 38857  54.9417 168.3531 0001671 267.4932  92.5813  1.70473775 43745
2,GENERATED VIA SPACE-TRACK.ORG API,2019-10-25T22:30:17,18 SPCS,GALILEO-FM3,2012-055A,EARTH,TEME,UTC,SGP4,2019-10-25T04:30:23.233824,1.70473762,0.0001604,54.9425,168.2883,266.7196,93.3651,0,U,38857,999,4378,0.0,4.4e-07,0,29600.347,844.704,23226.96,23217.464,PAYLOAD,LARGE,ESA,2012-10-12,FRGUI,,2641617,142021814,0 GALILEO-FM3,1 38857U 12055A   19298.18776891  .00000044  00000-0  00000+0 0  9997,2 38857  54.9425 168.2883 0001604 266.7196  93.3651  1.70473762 43782
2,GENERATED VIA SPACE-TRACK.ORG API,2019-10-28T04:39:22,18 SPCS,GALILEO-FM3,2012-055A,EARTH,TEME,UTC,SGP4,2019-10-27T12:49:07.679424,1.70473782,0.0001541,54.9428,168.2236,265.9357,94.1577,0,U,38857,999,4382,0.0,4.8e-07,0,29600.345,844.704,23226.771,23217.648,PAYLOAD,LARGE,ESA,2012-10-12,FRGUI,,2642786,142159256,0 GALILEO-FM3,1 38857U 12055A   19300.53411666 +.00000048 +00000-0 +00000-0 0  9991,2 38857 054.9428 168.2236 0001541 265.9357 094.1577 01.70473782043820
2,GENERATED VIA SPACE-TRACK.ORG API,2019-10-28T06:20:16,18 SPCS,GALILEO-FM3,2012-055A,EARTH,TEME,UTC,SGP4,2019-10-27T12:49:07.679424,1.70473782,0.0001541,54.9428,168.2236,265.9357,94.1577,0,U,38857,999,4382,0.0,4.8e-07,0,29600.345,844.704,23226.771,23217.648,PAYLOAD,LARGE,ESA,2012-10-12,FRGUI,,2642823,142183890,0 GALILEO-FM3,1 38857U 12055A   19300.53411666  .00000048  00000-0  00000+0 0  9990,2 38857  54.9428 168.2236 0001541 265.9357  94.1577  1.70473782 43820
2,GENERATED VIA SPACE-TRACK.ORG API,2019-10-29T04:12:47,18 SPCS,GALILEO-FM3,2012-055A,EARTH,TEME,UTC,SGP4,2019-10-28T16:58:29.246880,1.70473799,0.00015,54.943,168.1913,265.2147,94.8784,0,U,38857,999,4384,0.0,4.4e-07,0,29600.343,844.704,23226.648,23217.768,PAYLOAD,LARGE,ESA,2012-10-12,FRGUI,,2643299,142228605,0 GALILEO-FM3,1 38857U 12055A   19301.70728295 +.00000044 +00000-0 +00000-0 0  9996,2 38857 054.9430 168.1913 0001500 265.2147 094.8784 01.70473799043846
2,GENERATED VIA SPACE-TRACK.ORG API,2019-10-30T14:20:17,18 SPCS,GALILEO-FM3,2012-055A,EARTH,TEME,UTC,SGP4,2019-10-29T21:07:50.348640,1.70473826,0.0001456,54.9438,168.1589,264.6545,95.4349,0,U,38857,999,4386,0.0,3.7e-07,0,29600.34,844.704,23226.515,23217.895,PAYLOAD,LARGE,ESA,2012-10-12,FRGUI,,2644004,142268575,0 GALILEO-FM3,1 38857U 12055A   19302.88044385  .00000037  00000-0  00000+0 0  9998,2 38857  54.9438 168.1589 0001456 264.6545  95.4349  1.70473826 43865
2,GENERATED VIA SPACE-TRACK.ORG API,2019-11-01T22:30:17,18 SPCS,GALILEO-FM3,2012-055A,EARTH,TEME,UTC,SGP4,2019-11-01T05:26:31.930080,1.7047388,0.0001382,54.944,168.0941,263.2966,96.7814,0,U,38857,999,4390,0.0,2.4e-07,0,29600.333,844.704,23226.289,23218.108,PAYLOAD,LARGE,ESA,2012-10-12,FRGUI,,2645081,142369297,0 GALILEO-FM3,1 38857U 12055A   19305.22675845  .00000024  00000-0  00000+0 0  9996,2 38857  54.9440 168.0941 0001382 263.2966  96.7814  1.70473880 43905
2,GENERATED VIA SPACE-TRACK.ORG API,2019-11-04T03:55:07,18 SPCS,GALILEO-FM3,2012-055A,EARTH,TEME,UTC,SGP4,2019-11-02T23:40:33.477312,1.70473931,0.0001351,54.9443,168.0456,262.1162,97.956,0,U,38857,999,4393,0.0,2.4e-07,0,29600.328,844.703,23226.192,23218.194,PAYLOAD,LARGE,ESA,2012-10-12,FRGUI,,2646292,142487942,0 GALILEO-FM3,1 38857U 12055A   19306.98649858 +.00000024 +00000-0 +00000-0 0  9996,2 38857 054.9443 168.0456 0001351 262.1162 097.9560 01.70473931043932
2,GENERATED VIA SPACE-TRACK.ORG API,2019-11-05T18:43:10,18 SPCS,GALILEO-FM3,2012-055A,EARTH,TEME,UTC,SGP4,2019-11-04T17:54:35.874720,1.70473977,0.0001336,54.9451,167.9971,261.312,98.7607,0,U,38857,999,4396,0.0,3.4e-07,0,29600.322,844.703,23226.142,23218.233,PAYLOAD,LARGE,ESA,2012-10-12,FRGUI,,2647198,142546257,0 GALILEO-FM3,1 38857U 12055A   19308.74624855 +.00000034 +00000-0 +00000-0 0  9993,2 38857 054.9451 167.9971 0001336 261.3120 098.7607 01.70473977043963
2,GENERATED VIA SPACE-TRACK.ORG API,2019-11-05T06:20:16,18 SPCS,GALILEO-FM3,2012-055A,EARTH,TEME,UTC,SGP4,2019-11-04T17:54:35.874720,1.70473977,0.0001336,54.9451,167.9971,261.312,98.7607,0,U,38857,999,4396,0.0,3.4e-07,0,29600.322,844.703,23226.142,23218.233,PAYLOAD,LARGE,ESA,2012-10-12,FRGUI,,2646881,142524482,0 GALILEO-FM3,1 38857U 12055A   19308.74624855  .00000034  00000-0  00000+0 0  9992,2 38857  54.9451 167.9971 0001336 261.3120  98.7607  1.70473977 43963
